{
"type": "FeatureCollection",
"name": "s_asia_bounds",
"crs": { "type": "name", "properties": { "name": "urn:ogc:def:crs:OGC:1.3:CRS84" } },
"features": [
{ "type": "Feature", "properties": { }, "geometry": { "type": "Polygon", "coordinates": [ [ [ 68.764782571295271, 15.560480209557573 ], [ 110.489399478567123, 8.939497398068875 ], [ 109.019757984113141, 21.151958027821461 ], [ 108.652832961059246, 31.15495813306023 ], [ 100.528064593437207, 33.894672217174048 ], [ 94.814517805883654, 36.380504744290498 ], [ 85.746227950408738, 36.843332292218356 ], [ 79.298831116747365, 38.461744966272477 ], [ 73.742537910502648, 38.83019793025651 ], [ 70.020869819527377, 38.584773098765574 ], [ 66.351619588988413, 35.957347566576075 ], [ 65.722605263753138, 30.975357679387642 ], [ 65.759491906282378, 23.169165965893924 ], [ 68.764782571295271, 15.560480209557573 ] ] ] } }
]
}
